Unnamed: 0,NORAD_CAT_ID,OBJECT_NAME,EPOCH,MEAN_MOTION,ECCENTRICITY,INCLINATION,RA_OF_ASC_NODE,ARG_OF_PERICENTER,MEAN_ANOMALY,BSTAR,MEAN_MOTION_DOT,MEAN_MOTION_DDOT,TLE_LINE1,TLE_LINE2,SEMIMAJOR_AXIS,PERIOD,APOGEE,PERIGEE,alltitude
1351121,48481,STARLINK-2706,2021-08-08 02:25:39.936288,15.06400297,0.0002122,53.0517,159.1388,76.1278,283.9947,-4.9035e-05,-1.012e-05,0,1 48481U 21040BF  21220.10115667 -.00001012  00000-0 -49035-4 0  9997,2 48481  53.0517 159.1388 0002122  76.1278 283.9947 15.06400297 15227,6925.348,95.592,548.682,545.743,547.7420373497802
1349411,48481,STARLINK-2706,2021-08-07 13:41:21.273504,15.06397471,0.0002104,53.0517,161.5218,75.6934,284.4288,-6.2986e-05,-1.22e-05,0,1 48481U 21040BF  21219.57038511 -.00001220  00000-0 -62986-4 0  9999,2 48481  53.0517 161.5218 0002104  75.6934 284.4288 15.06397471 13860,6925.356,95.592,548.678,545.764,547.737616362166
1347121,48481,STARLINK-2706,2021-08-07 05:43:39.586368,15.06395783,0.0002091,53.0516,163.011,75.353,284.7691,-7.3977e-05,-1.383e-05,0,1 48481U 21040BF  21219.23865262 -.00001383  00000-0 -73977-4 0  9995,2 48481  53.0516 163.0110 0002091  75.3530 284.7691 15.06395783 13811,6925.361,95.592,548.675,545.778,547.7392160780564
1346879,48481,STARLINK-2706,2021-08-07 02:32:34.880064,15.06395778,0.000209,53.0517,163.607,75.2314,284.8906,-7.3613e-05,-1.378e-05,0,1 48481U 21040BF  21219.10595926 -.00001378  00000-0 -73613-4 0  9999,2 48481  53.0517 163.6070 0002090  75.2314 284.8906 15.06395778 15075,6925.361,95.592,548.674,545.779,547.7388383387741
1342666,48481,STARLINK-2706,2021-08-06 04:15:01.263744,15.0640734,0.0002053,53.0517,167.7773,73.6995,286.4219,5.1206e-05,4.81e-06,0,1 48481U 21040BF  21218.17709796  .00000481  00000-0  51206-4 0  9993,2 48481  53.0517 167.7773 0002053  73.6995 286.4219 15.06407340 13652,6925.326,95.592,548.613,545.769,547.6683923399237
1340376,48481,STARLINK-2706,2021-08-05 13:55:10.366176,15.06404246,0.0002002,53.0517,170.4582,71.8816,288.2391,6.4141e-05,6.74e-06,0,1 48481U 21040BF  21217.57998109  .00000674  00000-0  64141-4 0  9990,2 48481  53.0517 170.4582 0002002  71.8816 288.2391 15.06404246 13560,6925.336,95.592,548.587,545.814,547.6466639108304
1340377,48481,STARLINK-2706,2021-08-05 13:55:10.366176,15.06404246,0.0002002,53.0517,170.4582,71.8816,288.2391,6.4141e-05,6.74e-06,0,1 48481U 21040BF  21217.57998109  .00000674  00000-0  64141-4 0  9990,2 48481  53.0517 170.4582 0002002  71.8816 288.2391 15.06404246 14842,6925.336,95.592,548.587,545.814,547.6466639108304
1336555,48481,STARLINK-2706,2021-08-04 14:02:05.343648,15.06399786,0.0001943,53.0515,174.9261,70.2321,289.8877,6.5277e-05,6.91e-06,0,1 48481U 21040BF  21216.58478407  .00000691  00000-0  65277-4 0  9994,2 48481  53.0515 174.9261 0001943  70.2321 289.8877 15.06399786 13410,6925.349,95.592,548.56,545.869,547.6362913432165
1333661,48481,STARLINK-2706,2021-08-04 01:17:46.641120,15.06396424,0.0001924,53.0513,177.3088,69.4707,290.6489,4.8569e-05,4.42e-06,0,1 48481U 21040BF  21216.05401205  .00000442  00000-0  48569-4 0  9997,2 48481  53.0513 177.3088 0001924  69.4707 290.6489 15.06396424 13335,6925.36,95.592,548.557,545.892,547.6367772647476
1333660,48481,STARLINK-2706,2021-08-04 01:17:46.641120,15.06396424,0.0001924,53.0513,177.3088,69.4707,290.6489,4.8569e-05,4.42e-06,0,1 48481U 21040BF  21216.05401205  .00000442  00000-0  48569-4 0  9997,2 48481  53.0513 177.3088 0001924  69.4707 290.6489 15.06396424 14617,6925.36,95.592,548.557,545.892,547.6367772647476
1330750,48481,STARLINK-2706,2021-08-03 04:35:45.911040,15.06393205,0.0001897,53.0512,181.181,68.5306,291.5885,5.2251e-05,4.97e-06,0,1 48481U 21040BF  21215.19150360  .00000497  00000-0  52251-4 0  9997,2 48481  53.0512 181.1810 0001897  68.5306 291.5885 15.06393205 13204,6925.369,95.593,548.548,545.921,547.6352450890139
1326260,48481,STARLINK-2706,2021-08-02 07:53:45.409920,15.06389846,0.0001849,53.0512,185.0532,67.3704,292.748,4.1396e-05,3.35e-06,0,1 48481U 21040BF  21214.32899353  .00000335  00000-0  41396-4 0  9992,2 48481  53.0512 185.0532 0001849  67.3704 292.7480 15.06389846 13079,6925.38,95.593,548.525,545.964,547.6268818360605
1326258,48481,STARLINK-2706,2021-08-02 07:53:45.409920,15.06389846,0.0001849,53.0512,185.0532,67.3704,292.748,4.1396e-05,3.35e-06,0,1 48481U 21040BF  21214.32899353  .00000335  00000-0  41396-4 0  9992,2 48481  53.0512 185.0532 0001849  67.3704 292.7480 15.06389846 14351,6925.38,95.593,548.525,545.964,547.6268818360605
1323461,48481,STARLINK-2706,2021-08-01 15:58:21.193248,15.06387564,0.00018,53.0512,188.0317,67.3735,292.7444,3.9566e-05,3.08e-06,0,1 48481U 21040BF  21213.66552307  .00000308  00000-0  39566-4 0  9999,2 48481  53.0512 188.0317 0001800  67.3735 292.7444 15.06387564 12977,6925.387,95.593,548.498,546.005,547.6482442708613
1321366,48481,STARLINK-2706,2021-08-01 08:00:39.205440,15.0638667,0.0001787,53.0511,189.521,67.2759,292.8419,4.579e-05,4e-06,0,1 48481U 21040BF  21213.33378710  .00000400  00000-0  45790-4 0  9996,2 48481  53.0511 189.5210 0001787  67.2759 292.8419 15.06386670 12928,6925.389,95.593,548.492,546.017,547.6525972173116
1320711,48481,STARLINK-2706,2021-08-01 01:38:29.663232,15.06385627,0.0001768,53.0511,190.7124,67.343,292.7746,4.0959e-05,3.28e-06,0,1 48481U 21040BF  21213.06839888  .00000328  00000-0  40959-4 0  9995,2 48481  53.0511 190.7124 0001768  67.3430 292.7746 15.06385627 14163,6925.393,95.593,548.482,546.033,547.665792414901
1318688,48481,STARLINK-2706,2021-07-31 16:05:15.238464,15.06384961,0.0001754,53.0511,192.4997,66.6621,293.4552,4.43e-05,3.78e-06,0,1 48481U 21040BF  21212.67031526  .00000378  00000-0  44300-4 0  9993,2 48481  53.0511 192.4997 0001754  66.6621 293.4552 15.06384961 12823,6925.395,95.593,548.474,546.045,547.6549996970366
1316563,48481,STARLINK-2706,2021-07-31 08:07:33.238560,15.06383648,0.0001743,53.0511,193.9889,66.495,293.6222,4.7811e-05,4.3e-06,0,1 48481U 21040BF  21212.33857915  .00000430  00000-0  47811-4 0  9993,2 48481  53.0511 193.9889 0001743  66.4950 293.6222 15.06383648 12771,6925.399,95.593,548.471,546.057,547.6588215461732
1314190,48481,STARLINK-2706,2021-07-30 16:12:09.116064,15.06390101,0.000164,53.0511,196.9673,66.7761,293.3401,-5.7382e-05,-1.136e-05,0,1 48481U 21040BF  21211.67510551 -.00001136  00000-0 -57382-4 0  9991,2 48481  53.0511 196.9673 0001640  66.7761 293.3401 15.06390101 12671,6925.379,95.593,548.38,546.108,547.6717748753471
1314189,48481,STARLINK-2706,2021-07-30 16:12:09.116064,15.06390101,0.000164,53.0511,196.9673,66.7761,293.3401,-5.7382e-05,-1.136e-05,0,1 48481U 21040BF  21211.67510551 -.00001136  00000-0 -57382-4 0  9991,2 48481  53.0511 196.9673 0001640  66.7761 293.3401 15.06390101 13953,6925.379,95.593,548.38,546.108,547.6717748753471
1312192,48481,STARLINK-2706,2021-07-30 08:14:27.154176,15.06389827,0.0001593,53.051,198.4566,68.3291,291.7867,-6.0122e-05,-1.177e-05,0,1 48481U 21040BF  21211.34336984 -.00001177  00000-0 -60122-4 0  9992,2 48481  53.0510 198.4566 0001593  68.3291 291.7867 15.06389827 12627,6925.38,95.593,548.348,546.142,547.713413355438
1308102,48481,STARLINK-2706,2021-07-29 08:21:21.328128,15.06389727,0.0001548,53.051,202.9247,67.4177,292.6976,-7.5296e-05,-1.403e-05,0,1 48481U 21040BF  21210.34816352 -.00001403  00000-0 -75296-4 0  9993,2 48481  53.0510 202.9247 0001548  67.4177 292.6976 15.06389727 12470,6925.38,95.593,548.317,546.173,547.7108153230407
1308101,48481,STARLINK-2706,2021-07-29 08:21:21.328128,15.06389727,0.0001548,53.051,202.9247,67.4177,292.6976,-7.5296e-05,-1.403e-05,0,1 48481U 21040BF  21210.34816352 -.00001403  00000-0 -75296-4 0  9993,2 48481  53.0510 202.9247 0001548  67.4177 292.6976 15.06389727 13752,6925.38,95.593,548.317,546.173,547.7108153230407
1303856,48481,STARLINK-2706,2021-07-28 05:17:10.159008,15.064024,0.0001452,53.0509,207.9888,63.5058,296.608,4.4284e-05,3.78e-06,0,1 48481U 21040BF  21209.22025647  .00000378  00000-0  44284-4 0  9998,2 48481  53.0509 207.9888 0001452  63.5058 296.6080 15.06402400 12309,6925.341,95.592,548.212,546.201,547.6339325833602
1303583,48481,STARLINK-2706,2021-07-28 03:41:37.881024,15.06401389,0.0001447,53.0509,208.2867,63.3286,296.7851,3.6488e-05,2.62e-06,0,1 48481U 21040BF  21209.15391066  .00000262  00000-0  36488-4 0  9990,2 48481  53.0509 208.2867 0001447  63.3286 296.7851 15.06401389 13577,6925.344,95.592,548.211,546.207,547.6412635757972
1299392,48481,STARLINK-2706,2021-07-27 10:10:42.654720,15.06400577,0.0001425,53.0509,211.5633,63.2906,296.8229,3.2687e-05,2.05e-06,0,1 48481U 21040BF  21208.42409798  .00000205  00000-0  32687-4 0  9995,2 48481  53.0509 211.5633 0001425  63.2906 296.8229 15.06400577 12183,6925.347,95.592,548.199,546.225,547.6438753433005
1297846,48481,STARLINK-2706,2021-07-26 18:15:18.568512,15.06399053,0.0001394,53.051,214.5418,64.5784,295.5349,3.4677e-05,2.35e-06,0,1 48481U 21040BF  21207.76063158  .00000235  00000-0  34677-4 0  9991,2 48481  53.0510 214.5418 0001394  64.5784 295.5349 15.06399053 13368,6925.351,95.592,548.182,546.251,547.6814995524584
1296001,48481,STARLINK-2706,2021-07-26 08:42:04.427136,15.06398524,0.0001378,53.051,216.3288,65.1052,295.008,4.2274e-05,3.48e-06,0,1 48481U 21040BF  21207.36255124  .00000348  00000-0  42274-4 0  9990,2 48481  53.0510 216.3288 0001378  65.1052 295.0080 15.06398524 12021,6925.353,95.592,548.172,546.264,547.6947647724479
1293979,48481,STARLINK-2706,2021-07-25 18:22:13.230624,15.06397392,0.000135,53.0511,219.0094,66.0308,294.0822,4.1797e-05,3.41e-06,0,1 48481U 21040BF  21206.76543091  .00000341  00000-0  41797-4 0  9998,2 48481  53.0511 219.0094 0001350  66.0308 294.0822 15.06397392 11935,6925.357,95.592,548.156,546.287,547.7187029252957
1292155,48481,STARLINK-2706,2021-07-25 10:24:31.470912,15.06396412,0.0001341,53.051,220.4987,66.2162,293.8968,3.6702e-05,2.65e-06,0,1 48481U 21040BF  21206.43369758  .00000265  00000-0  36702-4 0  9993,2 48481  53.0510 220.4987 0001341  66.2162 293.8968 15.06396412 11885,6925.36,95.592,548.153,546.296,547.7287741478491
